[{"OBJECT_NAME":"STELLA","OBJECT_ID":"1993-061B","EPOCH":"2026-03-09T22:50:14.153280","MEAN_MOTION":14.2746756,"ECCENTRICITY":0.00067535,"INCLINATION":98.784,"RA_OF_ASC_NODE":132.7988,"ARG_OF_PERICENTER":156.9855,"MEAN_ANOMALY":327.7404,"EPHEMERIS_TYPE":0,"CLASSIFICATION_TYPE":"U","NORAD_CAT_ID":22824,"ELEMENT_SET_NO":999,"REV_AT_EPOCH":69061,"BSTAR":7.617075e-6,"MEAN_MOTION_DOT":-2.6e-7,"MEAN_MOTION_DDOT":0},{"OBJECT_NAME":"THORAD AGENA D DEB","OBJECT_ID":"1969-082DP","EPOCH":"2026-03-09T22:01:32.795616","MEAN_MOTION":14.24173398,"ECCENTRICITY":0.00450851,"INCLINATION":69.9819,"RA_OF_ASC_NODE":30.7954,"ARG_OF_PERICENTER":25.8405,"MEAN_ANOMALY":334.4953,"EPHEMERIS_TYPE":0,"CLASSIFICATION_TYPE":"U","NORAD_CAT_ID":4135,"ELEMENT_SET_NO":999,"REV_AT_EPOCH":91730,"BSTAR":0.00028978579,"MEAN_MOTION_DOT":6.18e-6,"MEAN_MOTION_DDOT":0}]
